STARLINK-2413
1 17827C 21018AS  21326.17985548 -.00019258  00000-0 -12904-2 0  3260
2 17827  53.0561  82.9415 0001283  74.5934 231.2482 15.06417412    19
